{"type": "FeatureCollection", "features": [ {"type": "Feature", "properties": {"norad_id": 44476, "name": "INTELSAT 39 (IS-39)", "group": "intelsat", "lat": -0.03413363650721124, "lon": -167.8584342036238, "alt_km": 35783.6097218636, "timestamp": "2025-12-04T03:47:54.221940+00:00", "meta": {"OBJECT_NAME": "INTELSAT 39 (IS-39)", "OBJECT_ID": "2019-049B", "EPOCH": "2025-12-03T20:07:48.019008", "MEAN_MOTION": 1.00270304, "ECCENTRICITY": 8.4e-05, "INCLINATION": 0.0175, "RA_OF_ASC_NODE": 320.7835, "ARG_OF_PERICENTER": 196.0033, "MEAN_ANOMALY": 280.033, "EPHEMERIS_TYPE": 0, "CLASSIFICATION_TYPE": "U", "NORAD_CAT_ID": 44476, "ELEMENT_SET_NO": 999, "REV_AT_EPOCH": 2316, "BSTAR": 0, "MEAN_MOTION_DOT": 5.1e-07, "MEAN_MOTION_DDOT": 0}, "tle": {"line1": "1 44476U 19049B   25337.83875022  .00000051  00000+0  00000+0 0  9997", "line2": "2 44476   0.0175 320.7835 0000840 196.0033 280.0330  1.00270304 23167"}}, "geometry": {"type": "Point", "coordinates": [-167.8584342036238, -0.03413363650721124]}}, {"type": "Feature", "properties": {"norad_id": 46114, "name": "GALAXY 30 (G-30)", "group": "intelsat", "lat": 0.029759775421279545, "lon": 5.2292657715195965, "alt_km": 35789.65214050866, "timestamp": "2025-12-04T03:47:54.221951+00:00", "meta": {"OBJECT_NAME": "GALAXY 30 (G-30)", "OBJECT_ID": "2020-056C", "EPOCH": "2025-12-03T16:22:26.539968", "MEAN_MOTION": 1.00272798, "ECCENTRICITY": 0.0002456, "INCLINATION": 0.0142, "RA_OF_ASC_NODE": 314.5503, "ARG_OF_PERICENTER": 298.758, "MEAN_ANOMALY": 300.0812, "EPHEMERIS_TYPE": 0, "CLASSIFICATION_TYPE": "U", "NORAD_CAT_ID": 46114, "ELEMENT_SET_NO": 999, "REV_AT_EPOCH": 1933, "BSTAR": 0, "MEAN_MOTION_DOT": 5.4e-07, "MEAN_MOTION_DDOT": 0}, "tle": {"line1": "1 46114U 20056C   25337.68225162  .00000054  00000+0  00000+0 0  9998", "line2": "2 46114   0.0142 314.5503 0002456 298.7580 300.0812  1.00272798 19338"}}, "geometry": {"type": "Point", "coordinates": [5.2292657715195965, 0.029759775421279545]}}, {"type": "Feature", "properties": {"norad_id": 54026, "name": "GALAXY 33 (G-33)", "group": "intelsat", "lat": 0.012209733170240935, "lon": -2.7732415637187753, "alt_km": 35788.35595443499, "timestamp": "2025-12-04T03:47:54.221963+00:00", "meta": {"OBJECT_NAME": "GALAXY 33 (G-33)", "OBJECT_ID": "2022-128A", "EPOCH": "2025-12-03T16:32:53.652768", "MEAN_MOTION": 1.00272774, "ECCENTRICITY": 0.0001987, "INCLINATION": 0.0145, "RA_OF_ASC_NODE": 350.6489, "ARG_OF_PERICENTER": 258.6126, "MEAN_ANOMALY": 298.7501, "EPHEMERIS_TYPE": 0, "CLASSIFICATION_TYPE": "U", "NORAD_CAT_ID": 54026, "ELEMENT_SET_NO": 999, "REV_AT_EPOCH": 1178, "BSTAR": 0, "MEAN_MOTION_DOT": 9.6e-07, "MEAN_MOTION_DDOT": 0}, "tle": {"line1": "1 54026U 22128A   25337.68950987  .00000096  00000+0  00000+0 0  9997", "line2": "2 54026   0.0145 350.6489 0001987 258.6126 298.7501  1.00272774 11788"}}, "geometry": {"type": "Point", "coordinates": [-2.7732415637187753, 0.012209733170240935]}}, {"type": "Feature", "properties": {"norad_id": 54027, "name": "GALAXY 34 (G-34)", "group": "intelsat", "lat": 0.03156064363516907, "lon": 1.2688276563077772, "alt_km": 35788.22112957677, "timestamp": "2025-12-04T03:47:54.221974+00:00", "meta": {"OBJECT_NAME": "GALAXY 34 (G-34)", "OBJECT_ID": "2022-128B", "EPOCH": "2025-12-03T16:34:01.044768", "MEAN_MOTION": 1.00272088, "ECCENTRICITY": 0.0001363, "INCLINATION": 0.0233, "RA_OF_ASC_NODE": 321.8757, "ARG_OF_PERICENTER": 286.2886, "MEAN_ANOMALY": 304.1795, "EPHEMERIS_TYPE": 0, "CLASSIFICATION_TYPE": "U", "NORAD_CAT_ID": 54027, "ELEMENT_SET_NO": 999, "REV_AT_EPOCH": 1195, "BSTAR": 0, "MEAN_MOTION_DOT": 0, "MEAN_MOTION_DDOT": 0}, "tle": {"line1": "1 54027U 22128B   25337.69028987  .00000000  00000+0  00000+0 0  9990", "line2": "2 54027   0.0233 321.8757 0001363 286.2886 304.1795  1.00272088 11957"}}, "geometry": {"type": "Point", "coordinates": [1.2688276563077772, 0.03156064363516907]}}, {"type": "Feature", "properties": {"norad_id": 54243, "name": "GALAXY 31 (G-31)", "group": "intelsat", "lat": 0.015820622143282694, "lon": 9.196760825787683, "alt_km": 35787.7934913559, "timestamp": "2025-12-04T03:47:54.221986+00:00", "meta": {"OBJECT_NAME": "GALAXY 31 (G-31)", "OBJECT_ID": "2022-153A", "EPOCH": "2025-12-03T13:10:46.528896", "MEAN_MOTION": 1.00271978, "ECCENTRICITY": 0.0002097, "INCLINATION": 0.013, "RA_OF_ASC_NODE": 357.9064, "ARG_OF_PERICENTER": 269.749, "MEAN_ANOMALY": 241.6575, "EPHEMERIS_TYPE": 0, "CLASSIFICATION_TYPE": "U", "NORAD_CAT_ID": 54243, "ELEMENT_SET_NO": 999, "REV_AT_EPOCH": 517, "BSTAR": 0, "MEAN_MOTION_DOT": 0, "MEAN_MOTION_DDOT": 0}, "tle": {"line1": "1 54243U 22153A   25337.54914964  .00000000  00000+0  00000+0 0  9991", "line2": "2 54243   0.0130 357.9064 0002097 269.7490 241.6575  1.00271978  5171"}}, "geometry": {"type": "Point", "coordinates": [9.196760825787683, 0.015820622143282694]}}, {"type": "Feature", "properties": {"norad_id": 54244, "name": "GALAXY 32 (G-32)", "group": "intelsat", "lat": 0.03464411569413772, "lon": 39.21982089335975, "alt_km": 35787.41848313415, "timestamp": "2025-12-04T03:47:54.221998+00:00", "meta": {"OBJECT_NAME": "GALAXY 32 (G-32)", "OBJECT_ID": "2022-153B", "EPOCH": "2025-12-03T13:19:23.206080", "MEAN_MOTION": 1.00270437, "ECCENTRICITY": 0.0002539, "INCLINATION": 0.0105, "RA_OF_ASC_NODE": 329.1215, "ARG_OF_PERICENTER": 335.3454, "MEAN_ANOMALY": 237.0261, "EPHEMERIS_TYPE": 0, "CLASSIFICATION_TYPE": "U", "NORAD_CAT_ID": 54244, "ELEMENT_SET_NO": 999, "REV_AT_EPOCH": 1118, "BSTAR": 0, "MEAN_MOTION_DOT": -1.56e-06, "MEAN_MOTION_DDOT": 0}, "tle": {"line1": "1 54244U 22153B   25337.55512970 -.00000156  00000+0  00000+0 0  9997", "line2": "2 54244   0.0105 329.1215 0002539 335.3454 237.0261  1.00270437 11182"}}, "geometry": {"type": "Point", "coordinates": [39.21982089335975, 0.03464411569413772]}}, {"type": "Feature", "properties": {"norad_id": 54741, "name": "GALAXY 35 (G-35)", "group": "intelsat", "lat": 0.03584339338370814, "lon": 37.109521805669246, "alt_km": 35793.794821982534, "timestamp": "2025-12-04T03:47:54.222009+00:00", "meta": {"OBJECT_NAME": "GALAXY 35 (G-35)", "OBJECT_ID": "2022-170A", "EPOCH": "2025-12-03T13:18:45.763776", "MEAN_MOTION": 1.00275104, "ECCENTRICITY": 0.0002947, "INCLINATION": 0.0153, "RA_OF_ASC_NODE": 341.0255, "ARG_OF_PERICENTER": 282.5296, "MEAN_ANOMALY": 275.6654, "EPHEMERIS_TYPE": 0, "CLASSIFICATION_TYPE": "U", "NORAD_CAT_ID": 54741, "ELEMENT_SET_NO": 999, "REV_AT_EPOCH": 1093, "BSTAR": 0, "MEAN_MOTION_DOT": 0, "MEAN_MOTION_DDOT": 0}, "tle": {"line1": "1 54741U 22170A   25337.55469634  .00000000  00000+0  00000+0 0  9993", "line2": "2 54741   0.0153 341.0255 0002947 282.5296 275.6654  1.00275104 10936"}}, "geometry": {"type": "Point", "coordinates": [37.109521805669246, 0.03584339338370814]}}, {"type": "Feature", "properties": {"norad_id": 54742, "name": "GALAXY 36 (G-36)", "group": "intelsat", "lat": 0.02718162640093576, "lon": 41.193997399073886, "alt_km": 35788.75679326548, "timestamp": "2025-12-04T03:47:54.222021+00:00", "meta": {"OBJECT_NAME": "GALAXY 36 (G-36)", "OBJECT_ID": "2022-170B", "EPOCH": "2025-12-03T13:20:00.644928", "MEAN_MOTION": 1.00270357, "ECCENTRICITY": 6.04e-05, "INCLINATION": 0.0156, "RA_OF_ASC_NODE": 264.3766, "ARG_OF_PERICENTER": 345.6709, "MEAN_ANOMALY": 293.6018, "EPHEMERIS_TYPE": 0, "CLASSIFICATION_TYPE": "U", "NORAD_CAT_ID": 54742, "ELEMENT_SET_NO": 999, "REV_AT_EPOCH": 1081, "BSTAR": 0, "MEAN_MOTION_DOT": -1.67e-06, "MEAN_MOTION_DDOT": 0}, "tle": {"line1": "1 54742U 22170B   25337.55556302 -.00000167  00000+0  00000+0 0  9998", "line2": "2 54742   0.0156 264.3766 0000604 345.6709 293.6018  1.00270357 10818"}}, "geometry": {"type": "Point", "coordinates": [41.193997399073886, 0.02718162640093576]}}, {"type": "Feature", "properties": {"norad_id": 57493, "name": "GALAXY 37 (G-37)", "group": "intelsat", "lat": 0.030981000192046172, "lon": 3.237543091859237, "alt_km": 35788.2807146349, "timestamp": "2025-12-04T03:47:54.222032+00:00", "meta": {"OBJECT_NAME": "GALAXY 37 (G-37)", "OBJECT_ID": "2023-112A", "EPOCH": "2025-12-03T16:22:38.540064", "MEAN_MOTION": 1.00273078, "ECCENTRICITY": 0.0002479, "INCLINATION": 0.0143, "RA_OF_ASC_NODE": 302.8949, "ARG_OF_PERICENTER": 316.0904, "MEAN_ANOMALY": 292.4607, "EPHEMERIS_TYPE": 0, "CLASSIFICATION_TYPE": "U", "NORAD_CAT_ID": 57493, "ELEMENT_SET_NO": 999, "REV_AT_EPOCH": 858, "BSTAR": 0, "MEAN_MOTION_DOT": 6.5e-07, "MEAN_MOTION_DDOT": 0}, "tle": {"line1": "1 57493U 23112A   25337.68239051  .00000065  00000+0  00000+0 0  9990", "line2": "2 57493   0.0143 302.8949 0002479 316.0904 292.4607  1.00273078  8587"}}, "geometry": {"type": "Point", "coordinates": [3.237543091859237, 0.030981000192046172]}}]}